{"type": "FeatureCollection", "features": [ {"type": "Feature", "properties": {"norad_id": 39155, "name": "COSMOS 2485 (747)", "group": "glo-ops", "lat": 18.528369551128886, "lon": -109.0479718412587, "alt_km": 19106.404855201003, "timestamp": "2025-12-14T16:47:40.944799+00:00", "meta": {"OBJECT_NAME": "COSMOS 2485 (747)", "OBJECT_ID": "2013-019A", "EPOCH": "2025-12-13T13:15:58.678272", "MEAN_MOTION": 2.13102947, "ECCENTRICITY": 0.00246467, "INCLINATION": 65.3142, "RA_OF_ASC_NODE": 79.8396, "ARG_OF_PERICENTER": 229.7128, "MEAN_ANOMALY": 130.0848, "EPHEMERIS_TYPE": 0, "CLASSIFICATION_TYPE": "U", "NORAD_CAT_ID": 39155, "ELEMENT_SET_NO": 999, "REV_AT_EPOCH": 9832, "BSTAR": 0, "MEAN_MOTION_DOT": -4.8e-07, "MEAN_MOTION_DDOT": 0}, "tle": {"line1": "1 39155U 13019A   25347.55276248 -.00000048  00000+0  00000+0 0  9998", "line2": "2 39155  65.3142  79.8396 0024646 229.7128 130.0848  2.13102947 98326"}}, "geometry": {"type": "Point", "coordinates": [-109.0479718412587, 18.528369551128886]}}, {"type": "Feature", "properties": {"norad_id": 39620, "name": "COSMOS 2492 (754)", "group": "glo-ops", "lat": -10.44158626164142, "lon": 145.0341025161242, "alt_km": 19149.819206328208, "timestamp": "2025-12-14T16:47:40.944810+00:00", "meta": {"OBJECT_NAME": "COSMOS 2492 (754)", "OBJECT_ID": "2014-012A", "EPOCH": "2025-12-12T02:29:11.116896", "MEAN_MOTION": 2.1310296, "ECCENTRICITY": 0.00141989, "INCLINATION": 65.408, "RA_OF_ASC_NODE": 320.2923, "ARG_OF_PERICENTER": 311.6032, "MEAN_ANOMALY": 48.2746, "EPHEMERIS_TYPE": 0, "CLASSIFICATION_TYPE": "U", "NORAD_CAT_ID": 39620, "ELEMENT_SET_NO": 999, "REV_AT_EPOCH": 9125, "BSTAR": 0, "MEAN_MOTION_DOT": -5.5e-07, "MEAN_MOTION_DDOT": 0}, "tle": {"line1": "1 39620U 14012A   25346.10360089 -.00000055  00000+0  00000+0 0  9994", "line2": "2 39620  65.4080 320.2923 0014198 311.6032  48.2746  2.13102960 91257"}}, "geometry": {"type": "Point", "coordinates": [145.0341025161242, -10.44158626164142]}}, {"type": "Feature", "properties": {"norad_id": 40001, "name": "COSMOS 2500 (755)", "group": "glo-ops", "lat": 51.56406845441684, "lon": -4.685197309047979, "alt_km": 19143.291646072325, "timestamp": "2025-12-14T16:47:40.944821+00:00", "meta": {"OBJECT_NAME": "COSMOS 2500 (755)", "OBJECT_ID": "2014-032A", "EPOCH": "2025-12-13T05:08:36.801312", "MEAN_MOTION": 2.13105905, "ECCENTRICITY": 0.00081883, "INCLINATION": 65.3428, "RA_OF_ASC_NODE": 320.0161, "ARG_OF_PERICENTER": 218.9765, "MEAN_ANOMALY": 140.9635, "EPHEMERIS_TYPE": 0, "CLASSIFICATION_TYPE": "U", "NORAD_CAT_ID": 40001, "ELEMENT_SET_NO": 999, "REV_AT_EPOCH": 8949, "BSTAR": 0, "MEAN_MOTION_DOT": -6e-07, "MEAN_MOTION_DDOT": 0}, "tle": {"line1": "1 40001U 14032A   25347.21431483 -.00000060  00000+0  00000+0 0  9997", "line2": "2 40001  65.3428 320.0161 0008188 218.9765 140.9635  2.13105905 89495"}}, "geometry": {"type": "Point", "coordinates": [-4.685197309047979, 51.56406845441684]}}, {"type": "Feature", "properties": {"norad_id": 40315, "name": "COSMOS 2501 (702K)", "group": "glo-ops", "lat": -35.44252384597187, "lon": 37.45250443823374, "alt_km": 19085.07274719677, "timestamp": "2025-12-14T16:47:40.944832+00:00", "meta": {"OBJECT_NAME": "COSMOS 2501 (702K)", "OBJECT_ID": "2014-075A", "EPOCH": "2025-12-13T22:38:23.179776", "MEAN_MOTION": 2.13101414, "ECCENTRICITY": 0.00201329, "INCLINATION": 63.6139, "RA_OF_ASC_NODE": 196.7834, "ARG_OF_PERICENTER": 204.3421, "MEAN_ANOMALY": 155.6359, "EPHEMERIS_TYPE": 0, "CLASSIFICATION_TYPE": "U", "NORAD_CAT_ID": 40315, "ELEMENT_SET_NO": 999, "REV_AT_EPOCH": 8590, "BSTAR": 0, "MEAN_MOTION_DOT": 9.1e-07, "MEAN_MOTION_DDOT": 0}, "tle": {"line1": "1 40315U 14075A   25347.94332384  .00000091  00000+0  00000+0 0  9995", "line2": "2 40315  63.6139 196.7834 0020132 204.3421 155.6359  2.13101414 85908"}}, "geometry": {"type": "Point", "coordinates": [37.45250443823374, -35.44252384597187]}}, {"type": "Feature", "properties": {"norad_id": 41330, "name": "COSMOS 2514 (751)", "group": "glo-ops", "lat": -46.1103191890548, "lon": 168.1432566113569, "alt_km": 19105.34939605234, "timestamp": "2025-12-14T16:47:40.944843+00:00", "meta": {"OBJECT_NAME": "COSMOS 2514 (751)", "OBJECT_ID": "2016-008A", "EPOCH": "2025-12-13T22:15:20.195712", "MEAN_MOTION": 2.13102653, "ECCENTRICITY": 0.00120546, "INCLINATION": 65.1331, "RA_OF_ASC_NODE": 319.3632, "ARG_OF_PERICENTER": 220.0811, "MEAN_ANOMALY": 139.8277, "EPHEMERIS_TYPE": 0, "CLASSIFICATION_TYPE": "U", "NORAD_CAT_ID": 41330, "ELEMENT_SET_NO": 999, "REV_AT_EPOCH": 7667, "BSTAR": 0, "MEAN_MOTION_DOT": -6.4e-07, "MEAN_MOTION_DDOT": 0}, "tle": {"line1": "1 41330U 16008A   25347.92731708 -.00000064  00000+0  00000+0 0  9993", "line2": "2 41330  65.1331 319.3632 0012054 220.0811 139.8277  2.13102653 76671"}}, "geometry": {"type": "Point", "coordinates": [168.1432566113569, -46.1103191890548]}}, {"type": "Feature", "properties": {"norad_id": 42939, "name": "COSMOS 2522 (752)", "group": "glo-ops", "lat": -3.062310298413617, "lon": -163.32586337870256, "alt_km": 19141.771881077944, "timestamp": "2025-12-14T16:47:40.944854+00:00", "meta": {"OBJECT_NAME": "COSMOS 2522 (752)", "OBJECT_ID": "2017-055A", "EPOCH": "2025-12-10T22:48:12.074400", "MEAN_MOTION": 2.1310181, "ECCENTRICITY": 0.00064932, "INCLINATION": 64.076, "RA_OF_ASC_NODE": 198.29, "ARG_OF_PERICENTER": 225.3551, "MEAN_ANOMALY": 134.6611, "EPHEMERIS_TYPE": 0, "CLASSIFICATION_TYPE": "U", "NORAD_CAT_ID": 42939, "ELEMENT_SET_NO": 999, "REV_AT_EPOCH": 6396, "BSTAR": 0, "MEAN_MOTION_DOT": 5.1e-07, "MEAN_MOTION_DDOT": 0}, "tle": {"line1": "1 42939U 17055A   25344.95013975  .00000051  00000+0  00000+0 0  9996", "line2": "2 42939  64.0760 198.2900 0006493 225.3551 134.6611  2.13101810 63969"}}, "geometry": {"type": "Point", "coordinates": [-163.32586337870256, -3.062310298413617]}}, {"type": "Feature", "properties": {"norad_id": 43508, "name": "COSMOS 2527 (756)", "group": "glo-ops", "lat": 24.079621225544074, "lon": 91.82536316592541, "alt_km": 19148.224706328987, "timestamp": "2025-12-14T16:47:40.944865+00:00", "meta": {"OBJECT_NAME": "COSMOS 2527 (756)", "OBJECT_ID": "2018-053A", "EPOCH": "2025-12-13T17:26:08.291904", "MEAN_MOTION": 2.13102046, "ECCENTRICITY": 0.00086624, "INCLINATION": 65.4732, "RA_OF_ASC_NODE": 80.0985, "ARG_OF_PERICENTER": 225.2125, "MEAN_ANOMALY": 134.7297, "EPHEMERIS_TYPE": 0, "CLASSIFICATION_TYPE": "U", "NORAD_CAT_ID": 43508, "ELEMENT_SET_NO": 999, "REV_AT_EPOCH": 5832, "BSTAR": 0, "MEAN_MOTION_DOT": -4.9e-07, "MEAN_MOTION_DDOT": 0}, "tle": {"line1": "1 43508U 18053A   25347.72648486 -.00000049  00000+0  00000+0 0  9995", "line2": "2 43508  65.4732  80.0985 0008662 225.2125 134.7297  2.13102046 58320"}}, "geometry": {"type": "Point", "coordinates": [91.82536316592541, 24.079621225544074]}}, {"type": "Feature", "properties": {"norad_id": 43687, "name": "COSMOS 2529 (757)", "group": "glo-ops", "lat": -42.08464885276963, "lon": 173.03722241146096, "alt_km": 19125.300299541315, "timestamp": "2025-12-14T16:47:40.944876+00:00", "meta": {"OBJECT_NAME": "COSMOS 2529 (757)", "OBJECT_ID": "2018-086A", "EPOCH": "2025-12-11T22:43:29.696736", "MEAN_MOTION": 2.1310189, "ECCENTRICITY": 0.00071924, "INCLINATION": 64.292, "RA_OF_ASC_NODE": 198.9152, "ARG_OF_PERICENTER": 254.1119, "MEAN_ANOMALY": 105.8792, "EPHEMERIS_TYPE": 0, "CLASSIFICATION_TYPE": "U", "NORAD_CAT_ID": 43687, "ELEMENT_SET_NO": 999, "REV_AT_EPOCH": 5529, "BSTAR": 0, "MEAN_MOTION_DOT": 6.1e-07, "MEAN_MOTION_DDOT": 0}, "tle": {"line1": "1 43687U 18086A   25345.94687149  .00000061  00000+0  00000+0 0  9993", "line2": "2 43687  64.2920 198.9152 0007192 254.1119 105.8792  2.13101890 55298"}}, "geometry": {"type": "Point", "coordinates": [173.03722241146096, -42.08464885276963]}}, {"type": "Feature", "properties": {"norad_id": 44299, "name": "COSMOS 2534 (758)", "group": "glo-ops", "lat": 64.10907202159926, "lon": -79.58605098789978, "alt_km": 19144.90648928178, "timestamp": "2025-12-14T16:47:40.944887+00:00", "meta": {"OBJECT_NAME": "COSMOS 2534 (758)", "OBJECT_ID": "2019-030A", "EPOCH": "2025-12-10T14:34:24.563136", "MEAN_MOTION": 2.13102261, "ECCENTRICITY": 0.0008999, "INCLINATION": 64.3653, "RA_OF_ASC_NODE": 198.9649, "ARG_OF_PERICENTER": 283.4628, "MEAN_ANOMALY": 263.2195, "EPHEMERIS_TYPE": 0, "CLASSIFICATION_TYPE": "U", "NORAD_CAT_ID": 44299, "ELEMENT_SET_NO": 999, "REV_AT_EPOCH": 5090, "BSTAR": 0, "MEAN_MOTION_DOT": 4.7e-07, "MEAN_MOTION_DDOT": 0}, "tle": {"line1": "1 44299U 19030A   25344.60722874  .00000047  00000+0  00000+0 0  9994", "line2": "2 44299  64.3653 198.9649 0008999 283.4628 263.2195  2.13102261 50901"}}, "geometry": {"type": "Point", "coordinates": [-79.58605098789978, 64.10907202159926]}}, {"type": "Feature", "properties": {"norad_id": 44850, "name": "COSMOS 2544 (759)", "group": "glo-ops", "lat": 58.19598785661644, "lon": 127.25158115054104, "alt_km": 19158.409330080103, "timestamp": "2025-12-14T16:47:40.944899+00:00", "meta": {"OBJECT_NAME": "COSMOS 2544 (759)", "OBJECT_ID": "2019-088A", "EPOCH": "2025-12-11T19:03:21.616416", "MEAN_MOTION": 2.13101808, "ECCENTRICITY": 0.00136914, "INCLINATION": 65.4596, "RA_OF_ASC_NODE": 79.99, "ARG_OF_PERICENTER": 249.2614, "MEAN_ANOMALY": 110.6076, "EPHEMERIS_TYPE": 0, "CLASSIFICATION_TYPE": "U", "NORAD_CAT_ID": 44850, "ELEMENT_SET_NO": 999, "REV_AT_EPOCH": 4672, "BSTAR": 0, "MEAN_MOTION_DOT": -3.2e-07, "MEAN_MOTION_DDOT": 0}, "tle": {"line1": "1 44850U 19088A   25345.79400019 -.00000032  00000+0  00000+0 0  9990", "line2": "2 44850  65.4596  79.9900 0013691 249.2614 110.6076  2.13101808 46724"}}, "geometry": {"type": "Point", "coordinates": [127.25158115054104, 58.19598785661644]}}]}